QIANFAN-9               
1 60387U 24140J   25360.23822537  .00000146  00000+0  20684-3 0  9996
2 60387  88.9777 297.9410 0016555 152.2025 208.0014 13.50984164 69150
QIANFAN-10              
1 60388U 24140K   25360.24240552  .00000133  00000+0  18741-3 0  9996
2 60388  88.9787 297.2891 0015719 130.0067 230.2467 13.50984502 69288
QIANFAN-11              
1 60389U 24140L   25360.27952785  .00000125  00000+0  17433-3 0  9996
2 60389  88.9713 297.8623 0014627 150.9581 209.2387 13.50980753 68949
QIANFAN-12              
1 60390U 24140M   25360.22594608  .00000132  00000+0  18556-3 0  9994
2 60390  88.9756 297.9171 0013171 158.4550 201.7158 13.50981588 69063
QIANFAN-13              
1 60391U 24140N   25360.27120127  .00000144  00000+0  20385-3 0  9997
2 60391  88.9768 298.0140 0012910 160.8597 199.3042 13.50982180 69099
QIANFAN-14              
1 60392U 24140P   25360.22174372  .00000130  00000+0  18320-3 0  9995
2 60392  88.9747 297.9138 0016566 162.7862 197.3855 13.50981567 69097
QIANFAN-15              
1 60393U 24140Q   25360.23003759  .00000129  00000+0  18038-3 0  9991
2 60393  88.9771 297.8727 0012853 147.1775 213.0177 13.50980348 69081
QIANFAN-16              
1 60394U 24140R   25360.21775860  .00000121  00000+0  16796-3 0  9990
2 60394  88.9774 297.9945 0014394 165.8030 194.3529 13.50985607 68995
